{"version": 0.6, "generator": "Overpass API 0.7.57.1 74a55df1", "osm3s": {"timestamp_osm_base": "2022-04-06T14:15:31Z", "copyright": "The data included in this document is from www.openstreetmap.org. The data is made available under ODbL."}, "elements": [{"type": "node", "id": 706084921, "lat": 41.8272867, "lon": 12.514321}, {"type": "node", "id": 706084923, "lat": 41.8288287, "lon": 12.514503}, {"type": "node", "id": 706084926, "lat": 41.828581, "lon": 12.5162057}, {"type": "node", "id": 706084934, "lat": 41.8280738, "lon": 12.5183093}, {"type": "node", "id": 1647975069, "lat": 41.8282664, "lon": 12.5167622}, {"type": "node", "id": 1701305307, "lat": 41.8269738, "lon": 12.5179322}, {"type": "node", "id": 1701305310, "lat": 41.8269832, "lon": 12.5177929}, {"type": "node", "id": 1701305312, "lat": 41.8269832, "lon": 12.5180361}, {"type": "node", "id": 1701305314, "lat": 41.8270002, "lon": 12.5181146}, {"type": "node", "id": 1701305317, "lat": 41.8270096, "lon": 12.5176435}, {"type": "node", "id": 1701305318, "lat": 41.8270379, "lon": 12.5182109}, {"type": "node", "id": 1701305320, "lat": 41.8271757, "lon": 12.5183401}, {"type": "node", "id": 1701305322, "lat": 41.8272488, "lon": 12.5183425}, {"type": "node", "id": 1701305329, "lat": 41.8272569, "lon": 12.5163161}, {"type": "node", "id": 1701305333, "lat": 41.8273032, "lon": 12.5158504}, {"type": "node", "id": 1701305378, "lat": 41.8275194, "lon": 12.5183604, "tags": {"access": "private", "barrier": "gate"}}, {"type": "node", "id": 2525815937, "lat": 41.833645, "lon": 12.5007369}, {"type": "node", "id": 2525815938, "lat": 41.8336936, "lon": 12.5000998}, {"type": "node", "id": 2525815941, "lat": 41.8338145, "lon": 12.5007601}, {"type": "node", "id": 2525815943, "lat": 41.833863, "lon": 12.500123}, {"type": "node", "id": 2916644894, "lat": 41.8254586, "lon": 12.5055327}, {"type": "node", "id": 2916644895, "lat": 41.8243536, "lon": 12.5047081}, {"type": "node", "id": 2916644896, "lat": 41.8243246, "lon": 12.5074934}, {"type": "node", "id": 2916644897, "lat": 41.8243984, "lon": 12.5075819}, {"type": "node", "id": 2916644898, "lat": 41.8248388, "lon": 12.507904}, {"type": "node", "id": 2916644899, "lat": 41.8248336, "lon": 12.5076492}, {"type": "node", "id": 2916644900, "lat": 41.8249232, "lon": 12.5073129}, {"type": "node", "id": 2916646101, "lat": 41.8254718, "lon": 12.5059857}, {"type": "node", "id": 2916646102, "lat": 41.8255351, "lon": 12.5058265}, {"type": "node", "id": 2916646103, "lat": 41.8255509, "lon": 12.5057238}, {"type": "node", "id": 2916646104, "lat": 41.8255404, "lon": 12.5056318}, {"type": "node", "id": 3230716696, "lat": 41.8253415, "lon": 12.5075735, "tags": {"addr:city": "Roma", "addr:housenumber": "71", "addr:postcode": "00143", "addr:street": "Via Giunio Antonio Resti", "building": "office", "name": "AKT srl"}}, {"type": "node", "id": 3357546354, "lat": 41.8284519, "lon": 12.5144576}, {"type": "node", "id": 3357546355, "lat": 41.8284693, "lon": 12.5142607}, {"type": "node", "id": 3357546356, "lat": 41.8277806, "lon": 12.5141837}, {"type": "node", "id": 3357546357, "lat": 41.8277649, "lon": 12.5143689}, {"type": "node", "id": 3357546358, "lat": 41.8286997, "lon": 12.5153898}, {"type": "node", "id": 3357546359, "lat": 41.8290203, "lon": 12.5154808}, {"type": "node", "id": 3357546360, "lat": 41.8290846, "lon": 12.515034}, {"type": "node", "id": 3357546361, "lat": 41.8296104, "lon": 12.5151449}, {"type": "node", "id": 3357546362, "lat": 41.8294979, "lon": 12.5159583}, {"type": "node", "id": 3357546363, "lat": 41.8289676, "lon": 12.5158362}, {"type": "node", "id": 3357546364, "lat": 41.8290161, "lon": 12.5155109}, {"type": "node", "id": 3357546365, "lat": 41.8286952, "lon": 12.5154192}, {"type": "node", "id": 5266026073, "lat": 41.8325832, "lon": 12.5159302}, {"type": "node", "id": 5266026074, "lat": 41.8324753, "lon": 12.5158417}, {"type": "node", "id": 5266026075, "lat": 41.8324093, "lon": 12.5157586}, {"type": "node", "id": 5266026076, "lat": 41.8323494, "lon": 12.5156245}, {"type": "node", "id": 5266026077, "lat": 41.8323094, "lon": 12.5155091}, {"type": "node", "id": 5266026078, "lat": 41.8322954, "lon": 12.5153321}, {"type": "node", "id": 5266026079, "lat": 41.8324013, "lon": 12.5153375}, {"type": "node", "id": 5266026080, "lat": 41.8324393, "lon": 12.5155091}, {"type": "node", "id": 5266026081, "lat": 41.8324733, "lon": 12.5156137}, {"type": "node", "id": 5266026082, "lat": 41.8325412, "lon": 12.515721}, {"type": "node", "id": 5266026083, "lat": 41.8326331, "lon": 12.5158095}, {"type": "node", "id": 5266026084, "lat": 41.832825, "lon": 12.515662}, {"type": "node", "id": 5266026085, "lat": 41.832813, "lon": 12.5155655}, {"type": "node", "id": 5266026086, "lat": 41.832777, "lon": 12.5154313}, {"type": "node", "id": 5266026087, "lat": 41.8327231, "lon": 12.5153267}, {"type": "node", "id": 5266026088, "lat": 41.8326371, "lon": 12.5152114}, {"type": "node", "id": 5266026089, "lat": 41.8325372, "lon": 12.5151309}, {"type": "node", "id": 5266026090, "lat": 41.8324853, "lon": 12.515265}, {"type": "node", "id": 5266026091, "lat": 41.8325452, "lon": 12.515316}, {"type": "node", "id": 5266026092, "lat": 41.8325952, "lon": 12.5153777}, {"type": "node", "id": 5266026093, "lat": 41.8326631, "lon": 12.5154984}, {"type": "node", "id": 5266026094, "lat": 41.8326991, "lon": 12.5156003}, {"type": "node", "id": 5266026095, "lat": 41.8327111, "lon": 12.5157371}, {"type": "node", "id": 5266026096, "lat": 41.832823, "lon": 12.5157317}, {"type": "node", "id": 5266026097, "lat": 41.8316885, "lon": 12.5160168}, {"type": "node", "id": 5266026098, "lat": 41.8321974, "lon": 12.5159889}, {"type": "node", "id": 5266026099, "lat": 41.8317228, "lon": 12.5159879}, {"type": "node", "id": 5266026100, "lat": 41.8320897, "lon": 12.5157588}, {"type": "node", "id": 5266026101, "lat": 41.83166, "lon": 12.515956}, {"type": "node", "id": 5266026102, "lat": 41.832114, "lon": 12.515573}, {"type": "node", "id": 5266026103, "lat": 41.8322772, "lon": 12.5159216}, {"type": "node", "id": 5266026104, "lat": 41.8317498, "lon": 12.5160456}, {"type": "node", "id": 5390684898, "lat": 41.8346248, "lon": 12.5003807, "tags": {"addr:housenumber": "51", "addr:street": "Via Mario Bianchini", "name": "Prisma", "office": "company", "opening_hours": "Mo-Fr 09:00-20:00", "phone": "+39 06 592 3557", "website": "prismaprogetti.it"}}, {"type": "node", "id": 5412225900, "lat": 41.8347199, "lon": 12.5049176, "tags": {"addr:housenumber": "164", "addr:street": "Via Alberto Ascari", "name": "Iws Consulting", "office": "company", "opening_hours": "Mo-Fr 09:00-18:00", "phone": "+39 06 9896 8170", "website": "https://www.iwsconsulting.it/"}}, {"type": "node", "id": 7135463597, "lat": 41.8232908, "lon": 12.5180613, "tags": {"addr:street": "Via Ardeatina", "name": "Accenture", "office": "company", "opening_hours": "Mo-Fr 08:00-20:00", "website": "https://www.accenture.com/it-it"}}, {"type": "way", "id": 56255929, "nodes": [706084921, 1701305333, 706084926, 3357546365, 3357546364, 3357546363, 3357546362, 3357546361, 3357546360, 3357546359, 3357546358, 706084923, 3357546354, 3357546355, 3357546356, 3357546357, 706084921], "tags": {"addr:city": "Roma", "addr:country": "IT", "addr:housenumber": "605", "addr:postcode": "00143", "addr:street": "Via di Vigna Murata", "amenity": "research_institute", "landuse": "commercial", "name": "Istituto Nazionale di Geofisica e Vulcanologia", "name:en": "http://www.itasgaribaldi-roma.gov.it", "short_name": "INGV", "website": "http://www.ingv.it/", "wikipedia": "en:National Institute of Geophysics and Volcanology"}}, {"type": "way", "id": 157895745, "nodes": [706084934, 1701305378, 1701305322, 1701305320, 1701305318, 1701305314, 1701305312, 1701305307, 1701305310, 1701305317, 1701305329, 1701305333, 706084926, 1647975069, 706084934], "tags": {"addr:city": "Roma", "addr:country": "IT", "addr:housenumber": "546", "addr:postcode": "00142", "addr:street": "Via Ardeatina", "amenity": "research_institute", "landuse": "commercial", "name": "Istituto Nazionale della Nutrizione", "phone": "+39 06 51494550", "short_name": "INRAN", "website": "https://www.inran.it/", "wikidata": "Q3155747", "wikipedia": "it:Istituto nazionale di ricerca per gli alimenti e la nutrizione"}}, {"type": "way", "id": 245373104, "nodes": [2525815938, 2525815943, 2525815941, 2525815937, 2525815938], "tags": {"addr:housenumber": "15", "addr:street": "Via Mario Bianchini", "building": "yes", "name": "BT Italia", "office": "company", "phone": "06 8741 1111", "website": "https://www.globalservices.bt.com/"}}, {"type": "way", "id": 288125775, "nodes": [2916644894, 2916644895, 2916644896, 2916644897, 2916644898, 2916644899, 2916644900, 2916646101, 2916646102, 2916646103, 2916646104, 2916644894], "tags": {"name": "INAIL - Sede Roma Laurentino", "office": "government"}}, {"type": "way", "id": 544798928, "nodes": [5266026083, 5266026082, 5266026081, 5266026080, 5266026079, 5266026078, 5266026077, 5266026076, 5266026075, 5266026074, 5266026073, 5266026083], "tags": {"building": "office"}}, {"type": "way", "id": 544798929, "nodes": [5266026096, 5266026095, 5266026094, 5266026093, 5266026092, 5266026091, 5266026090, 5266026089, 5266026088, 5266026087, 5266026086, 5266026085, 5266026084, 5266026096], "tags": {"building": "office"}}, {"type": "way", "id": 544798930, "nodes": [5266026104, 5266026099, 5266026097, 5266026101, 5266026102, 5266026103, 5266026098, 5266026100, 5266026104], "tags": {"addr:housenumber": "641", "addr:street": "Via di Grotta Perfetta", "building": "yes", "name": "DGS", "office": "company", "opening_hours": "Mo-Fr 09:00-18:00", "phone": "+39 06 581 1893", "website": "dgsgroup.it"}}]}