{"version": 0.6, "generator": "Overpass API 0.7.57 93a4d346", "osm3s": {"timestamp_osm_base": "2022-04-06T14:18:39Z", "copyright": "The data included in this document is from www.openstreetmap.org. The data is made available under ODbL."}, "elements": [{"type": "node", "id": 226930875, "lat": 41.8374051, "lon": 12.5082007, "tags": {"amenity": "fuel", "brand": "Agip Eni", "name": "Agip", "operator": "Masuccio Filippo", "ref:mise": "37156"}}, {"type": "node", "id": 227637590, "lat": 41.8331481, "lon": 12.5000515}, {"type": "node", "id": 228255292, "lat": 41.826787, "lon": 12.518583, "tags": {"amenity": "fuel", "brand": "Repsol"}}, {"type": "node", "id": 229108491, "lat": 41.837307, "lon": 12.50046, "tags": {"amenity": "fuel", "brand": "Total Erg", "fuel:lpg": "yes", "name": "Erg", "operator": "Gestioni Europa S.p.A.", "ref:mise": "5971"}}, {"type": "node", "id": 370222565, "lat": 41.8372893, "lon": 12.5039249, "tags": {"barrier": "gate"}}, {"type": "node", "id": 370222573, "lat": 41.8373108, "lon": 12.5037106, "tags": {"barrier": "gate"}}, {"type": "node", "id": 1072811835, "lat": 41.8368021, "lon": 12.5048325, "tags": {"addr:city": "Roma", "addr:housenumber": "100", "addr:street": "Via Mario Rigamonti", "level": "1", "name": "Panorama", "operator": "PAM Panorama SpA.", "ref": "229", "ref:vatin": "IT02036440275", "shop": "supermarket", "wheelchair": "yes"}}, {"type": "node", "id": 1273448285, "lat": 41.837374, "lon": 12.5117255, "tags": {"addr:city": "Roma", "addr:housenumber": "60", "addr:postcode": "00142", "addr:street": "Vicolo dell'Annunziatella", "amenity": "restaurant", "cuisine": "regional;italian", "name": "da Riccardo", "phone": "+39 06 5032124"}}, {"type": "node", "id": 1647969147, "lat": 41.828528, "lon": 12.5183984}, {"type": "node", "id": 1647969150, "lat": 41.8285939, "lon": 12.5198047}, {"type": "node", "id": 1647969152, "lat": 41.8287957, "lon": 12.5183845}, {"type": "node", "id": 1647969156, "lat": 41.8288533, "lon": 12.5197881}, {"type": "node", "id": 2255561647, "lat": 41.8353819, "lon": 12.5151297, "tags": {"addr:city": "Roma", "addr:housenumber": "113", "addr:postcode": "00142", "addr:street": "Via della Fotografia", "name": "Emme Pi\u00f9", "opening_hours": "Mo-Sa 08:30-20:00; Su 08:30-13:30", "phone": "+390651531046", "shop": "supermarket"}}, {"type": "node", "id": 2428140819, "lat": 41.8364262, "lon": 12.5049838}, {"type": "node", "id": 2428140835, "lat": 41.8367158, "lon": 12.5019913}, {"type": "node", "id": 2428140839, "lat": 41.8369653, "lon": 12.5017487, "tags": {"entrance": "yes"}}, {"type": "node", "id": 2428140840, "lat": 41.8371693, "lon": 12.5051184}, {"type": "node", "id": 2428140850, "lat": 41.837353, "lon": 12.5032912, "tags": {"entrance": "yes"}}, {"type": "node", "id": 2428140856, "lat": 41.8374312, "lon": 12.5025131, "tags": {"entrance": "yes"}}, {"type": "node", "id": 2428140859, "lat": 41.8374777, "lon": 12.5020505, "tags": {"entrance": "yes"}}, {"type": "node", "id": 2428140866, "lat": 41.8375249, "lon": 12.5015224}, {"type": "node", "id": 2916648115, "lat": 41.8389865, "lon": 12.5157285, "tags": {"addr:city": "Roma", "addr:postcode": "00142", "addr:street": "Via Giacomo Caneva", "amenity": "pharmacy", "name": "Farmacia Comunale FARMACAP"}}, {"type": "node", "id": 3091577247, "lat": 41.8334134, "lon": 12.5095094, "tags": {"addr:city": "Roma", "addr:country": "IT", "addr:housenumber": "25", "addr:street": "Via Fausto Coppi", "name": "Il Ciclista Roma 70", "phone": "+39 06 5035652", "service:bicycle:repair": "yes", "service:bicycle:retail": "yes", "service:bicycle:second_hand": "yes", "shop": "bicycle", "website": "https://www.ilciclistaroma.it/"}}, {"type": "node", "id": 3230716698, "lat": 41.8259614, "lon": 12.507605, "tags": {"addr:city": "Roma", "addr:housenumber": "51", "addr:postcode": "00143", "addr:street": "Via Giunio Antonio Resti", "amenity": "restaurant", "cuisine": "pizza;regional", "name": "Ciopa Blu", "phone": "+39 06 5192275"}}, {"type": "node", "id": 3237133801, "lat": 41.8248979, "lon": 12.5081066, "tags": {"name": "Giornali", "shop": "kiosk"}}, {"type": "node", "id": 3237133802, "lat": 41.8245181, "lon": 12.5042335, "tags": {"name": "Green Park", "shop": "florist"}}, {"type": "node", "id": 3736630855, "lat": 41.8372782, "lon": 12.5101247, "tags": {"addr:city": "Roma", "addr:housenumber": "551", "addr:postcode": "00142", "addr:street": "Via di Grotta Perfetta", "amenity": "restaurant", "cuisine": "pizza", "email": "ristoranteortodiroma@virgilio.it", "fax": "+39 06 97749278", "name": "Orto di Roma", "phone": "+39 06 5032081", "website": "https://www.ristoranteortodiroma.it/"}}, {"type": "node", "id": 4606174042, "lat": 41.8351788, "lon": 12.5154468, "tags": {"addr:city": "Roma", "addr:housenumber": "107", "addr:postcode": "00142", "addr:street": "Via della Fotografia", "amenity": "post_office", "atm": "yes", "name": "Ufficio Postale di Roma 161", "operator": "Poste Italiane"}}, {"type": "node", "id": 4711597089, "lat": 41.8230922, "lon": 12.5031049, "tags": {"name": "Euronics", "shop": "electronics"}}, {"type": "node", "id": 5056435396, "lat": 41.8261628, "lon": 12.4995396}, {"type": "node", "id": 5390684902, "lat": 41.8354682, "lon": 12.5003351, "tags": {"addr:housenumber": "61", "addr:street": "Via Mario Bianchini", "name": "Todis", "opening_hours": "Mo-Sa 08:00-20:30; Su 08:00-20:00", "phone": "+39 06 5195 7998", "shop": "supermarket"}}, {"type": "node", "id": 5412225601, "lat": 41.8333779, "lon": 12.5002439}, {"type": "node", "id": 5412225602, "lat": 41.8332925, "lon": 12.5004276}, {"type": "node", "id": 5412225603, "lat": 41.8330627, "lon": 12.5002352}, {"type": "node", "id": 5412225838, "lat": 41.8372362, "lon": 12.5014779}, {"type": "node", "id": 5412225839, "lat": 41.8372098, "lon": 12.5015093}, {"type": "node", "id": 5412225840, "lat": 41.8370907, "lon": 12.5016269}, {"type": "node", "id": 5412225841, "lat": 41.8370943, "lon": 12.5015788}, {"type": "node", "id": 5412225842, "lat": 41.8371061, "lon": 12.5015306}, {"type": "node", "id": 5412225843, "lat": 41.837132, "lon": 12.5014985}, {"type": "node", "id": 5412225844, "lat": 41.8371719, "lon": 12.5014918}, {"type": "node", "id": 5412225845, "lat": 41.8366867, "lon": 12.5022914, "tags": {"access": "customers", "amenity": "parking", "parking": "underground"}}, {"type": "node", "id": 5412225847, "lat": 41.836594, "lon": 12.50325, "tags": {"access": "customers", "amenity": "parking", "parking": "underground"}}, {"type": "node", "id": 5412225849, "lat": 41.8365199, "lon": 12.5040152, "tags": {"access": "customers", "amenity": "parking", "parking": "underground"}}, {"type": "node", "id": 5412225851, "lat": 41.8364808, "lon": 12.5044193, "tags": {"access": "customers", "amenity": "parking", "parking": "underground"}}, {"type": "node", "id": 5412225853, "lat": 41.8364468, "lon": 12.5047708, "tags": {"access": "customers", "amenity": "parking", "parking": "underground"}}, {"type": "node", "id": 5414168641, "lat": 41.8350121, "lon": 12.5023186, "tags": {"addr:housenumber": "273", "addr:street": "Via Alberto Ascari", "amenity": "cafe", "cuisine": "cafeteria;tobacco;pizza", "name": "Bar Neapolis", "opening_hours": "Mo-Su 06:30-22:30"}}, {"type": "node", "id": 5414168642, "lat": 41.835184, "lon": 12.5020021, "tags": {"shop": "hairdresser"}}, {"type": "node", "id": 5414168643, "lat": 41.8348862, "lon": 12.5024795, "tags": {"addr:housenumber": "261", "addr:street": "Via Alberto Ascari", "name": "Fruit & Roll", "opening_hours": "Mo-Fr 08:30-19:30; Sa 08:30-20:00", "shop": "yes"}}, {"type": "node", "id": 5414168644, "lat": 41.8346055, "lon": 12.5028684, "tags": {"addr:housenumber": "253", "addr:street": "Via Alberto Ascari", "name": "Informatica", "shop": "computer"}}, {"type": "node", "id": 5414168646, "lat": 41.8347244, "lon": 12.503826, "tags": {"addr:housenumber": "196", "addr:street": "Via Alberto Ascari", "amenity": "fast_food", "cuisine": "italian_pizza", "name": "Pizza nader", "opening_hours": "Mo-Su 08:00-22:00"}}, {"type": "node", "id": 5414168647, "lat": 41.8347244, "lon": 12.5037643, "tags": {"addr:housenumber": "198", "addr:street": "Via Alberto Ascari", "amenity": "fast_food", "cuisine": "italian_pizza", "name": "Pazzamente Pizza", "opening_hours": "Mo-Sa 09:00-22:00; Su 15:00-22:00", "website": "pazzamentepizza.it"}}, {"type": "node", "id": 5414168654, "lat": 41.8355277, "lon": 12.5064746, "tags": {"addr:housenumber": "157", "addr:street": "Via Tazio Nuvolari", "name": "La Cucina di Fl\u00f2", "opening_hours": "Mo-Fr 09:00-22:30; Sa-Su 18:00-22:30", "phone": "+39 06 5195 7774", "shop": "yes", "website": "https://www.lacucinadiflo.it/"}}, {"type": "node", "id": 5416319491, "lat": 41.835392, "lon": 12.5080239, "tags": {"addr:housenumber": "57", "addr:street": "Via Tazio Nuvolari", "amenity": "pharmacy", "healthcare": "pharmacy", "name": "Farmacia Mealli", "opening_hours": "Mo-Sa 08:00-20:00", "phone": "+39 06 519 3550", "website": "farmavera.it"}}, {"type": "node", "id": 5416319500, "lat": 41.834083, "lon": 12.5096386, "tags": {"amenity": "cafe", "name": "Caffetteria Roma 70", "opening_hours": "Mo-Su 07:00-20:00", "shop": "tobacco"}}, {"type": "node", "id": 5416319501, "lat": 41.8340111, "lon": 12.5097271, "tags": {"addr:housenumber": "10/12", "addr:street": "Via Adolfo Consolini", "name": "Casa Idea di XHL", "opening_hours": "Mo-Sa 07:30-20:00; Su 08:30-14:00", "shop": "houseware"}}, {"type": "node", "id": 5416319514, "lat": 41.8336214, "lon": 12.5102046, "tags": {"addr:housenumber": "36", "addr:street": "Via Adolfo Consolini", "name": "Conad City", "phone": "+39 06 503 8420", "shop": "supermarket"}}, {"type": "node", "id": 5416319515, "lat": 41.8334595, "lon": 12.5103923, "tags": {"shop": "hairdresser"}}, {"type": "node", "id": 5416319957, "lat": 41.833628, "lon": 12.5135288}, {"type": "node", "id": 5416319958, "lat": 41.8336855, "lon": 12.5136599}, {"type": "node", "id": 5416319959, "lat": 41.8336133, "lon": 12.5137169}, {"type": "node", "id": 5416319960, "lat": 41.8335558, "lon": 12.5135858}, {"type": "node", "id": 5416319961, "lat": 41.8337143, "lon": 12.5127568}, {"type": "node", "id": 5416319962, "lat": 41.8340176, "lon": 12.5133938}, {"type": "node", "id": 5416319963, "lat": 41.833718, "lon": 12.5136509}, {"type": "node", "id": 5416319964, "lat": 41.8336272, "lon": 12.5134603}, {"type": "node", "id": 5416319965, "lat": 41.8335316, "lon": 12.5135424}, {"type": "node", "id": 5416319966, "lat": 41.833319, "lon": 12.5130958}, {"type": "node", "id": 5469294910, "lat": 41.8261821, "lon": 12.4996467}, {"type": "node", "id": 5469294911, "lat": 41.826107, "lon": 12.4996711}, {"type": "node", "id": 5469294912, "lat": 41.8261393, "lon": 12.4998502}, {"type": "node", "id": 5469294913, "lat": 41.8260618, "lon": 12.4998754}, {"type": "node", "id": 5469294914, "lat": 41.8260298, "lon": 12.4996987}, {"type": "node", "id": 5469294915, "lat": 41.8260157, "lon": 12.4997033}, {"type": "node", "id": 5469294916, "lat": 41.8259959, "lon": 12.4995939}, {"type": "node", "id": 6292882288, "lat": 41.8268722, "lon": 12.5191878, "tags": {"shop": "construction_supplies"}}, {"type": "node", "id": 6515315916, "lat": 41.8372062, "lon": 12.5047512}, {"type": "node", "id": 7184305319, "lat": 41.8370817, "lon": 12.5041261, "tags": {"addr:housenumber": "100", "addr:postcode": "00142", "addr:street": "Via Rigamonti", "name": "GameStop", "phone": "+39 06 45503125", "ref": "ITA2682", "ref:vatin": "IT03217130966", "shop": "video_games"}}, {"type": "node", "id": 7977577592, "lat": 41.8265162, "lon": 12.5075908, "tags": {"addr:city": "Roma", "addr:housenumber": "19", "addr:postcode": "00143", "addr:street": "Via Giunio Antonio Resti", "name": "Elite", "shop": "supermarket"}}, {"type": "node", "id": 9490479060, "lat": 41.835184, "lon": 12.5019228, "tags": {"addr:housenumber": "305", "amenity": "pharmacy", "dispensing": "yes", "name": "Farmacia I Granai"}}, {"type": "node", "id": 9595548533, "lat": 41.8271319, "lon": 12.5074051}, {"type": "node", "id": 9595548534, "lat": 41.8271411, "lon": 12.5081292}, {"type": "node", "id": 9595548535, "lat": 41.8259678, "lon": 12.50816}, {"type": "node", "id": 9595548536, "lat": 41.8250587, "lon": 12.5082031}, {"type": "node", "id": 9595548537, "lat": 41.8250196, "lon": 12.5081538}, {"type": "node", "id": 9595548538, "lat": 41.8250196, "lon": 12.5075807}, {"type": "node", "id": 9595548539, "lat": 41.8250472, "lon": 12.5075099}, {"type": "node", "id": 9595548540, "lat": 41.8250839, "lon": 12.5074729}, {"type": "way", "id": 151958114, "nodes": [1647969147, 1647969150, 1647969156, 1647969152, 1647969147], "tags": {"addr:city": "Roma", "addr:country": "IT", "addr:housenumber": "521/C", "addr:postcode": "00178", "addr:street": "Via Ardeatina", "email": "bonsaidea@fastweb.it", "fax": "+39 06 5041719", "landuse": "retail", "name": "Bonsaidea", "operator": "Bonsaidea s.r.l.", "phone": "+39 06 5038778", "ref:vatin": "IT02022591008", "shop": "garden_centre"}}, {"type": "way", "id": 234571997, "nodes": [2428140866, 5412225838, 5412225839, 5412225844, 5412225843, 5412225842, 5412225841, 5412225840, 2428140839, 2428140835, 5412225845, 5412225847, 5412225849, 5412225851, 5412225853, 2428140819, 2428140840, 6515315916, 370222565, 370222573, 2428140850, 2428140856, 2428140859, 2428140866], "tags": {"addr:city": "Roma", "addr:housenumber": "100", "addr:postcode": "00142", "addr:street": "Via Mario Rigamonti", "building": "commercial", "building:levels": "4", "name": "Centro Commerciale \"I Granai\"", "shop": "mall"}}, {"type": "way", "id": 561259003, "nodes": [227637590, 5412225601, 5412225602, 5412225603, 227637590], "tags": {"amenity": "fuel", "brand": "IP", "brand:wikidata": "Q646807", "brand:wikipedia": "en:Anonima Petroli Italiana", "building": "roof", "layer": "1", "name": "IP", "operator": "Gestioni Europa S.P.A.", "ref:mise": "5972"}}, {"type": "way", "id": 561757109, "nodes": [5416319957, 5416319958, 5416319959, 5416319960, 5416319957], "tags": {"addr:housenumber": "600", "addr:street": "Via di Grotta Perfetta", "amenity": "cafe", "building": "yes", "cuisine": "bistro", "name": "Via Vai Bar - Bistrot", "opening_hours": "Mo-We 07:00-20:00; Th-Su 07:00-23:15", "phone": "+39 06 8676 0582"}}, {"type": "way", "id": 561757110, "nodes": [5416319961, 5416319962, 5416319963, 5416319964, 5416319965, 5416319966, 5416319961], "tags": {"addr:housenumber": "600", "addr:street": "Via di Grotta Perfetta", "name": "Italvia Automobili Due", "opening_hours": "Mo-Sa 09:30-19:30", "shop": "car", "website": "https://www.italvia2.it/"}}, {"type": "way", "id": 568509418, "nodes": [5056435396, 5469294910, 5469294911, 5469294912, 5469294913, 5469294914, 5469294915, 5469294916, 5056435396], "tags": {"addr:city": "Roma", "addr:housenumber": "202", "addr:postcode": "00143", "addr:street": "Via di Vigna Murata", "amenity": "fuel", "brand": "Eni", "brand:wikidata": "Q565594", "brand:wikipedia": "en:Eni", "building": "roof", "fuel:lpg": "yes", "name": "Eni", "operator": "Angeloni Fabio", "ref:mise": "14472"}}, {"type": "way", "id": 1042397557, "nodes": [9595548533, 9595548534, 9595548535, 9595548536, 9595548537, 9595548538, 9595548539, 9595548540, 9595548533], "tags": {"landuse": "retail"}}]}